OOV-CUBE (TUBSAT-30)    
1 60240U 24128F   26115.95071390  .00002800  00000+0  21995-3 0  9996
2 60240  61.9959  47.6812 0050542 122.2863 238.3140 15.02506942 98261
LPNTSAT-001 (IOD-1)     
1 68408U 26065A   26115.62072985  .00002338  00000+0  11668-3 0  9999
2 68408  97.4087 357.2309 0016893 181.6655 178.4526 15.18368758  4280
